{
  "type": "FeatureCollection",
  "features": [
    {
      "type": "Feature",
      "properties": {
        "norad_id": 43581,
        "name": "BEIDOU-3 M5 (C23)",
        "group": "gnss",
        "lat": -36.70295629392944,
        "lon": 156.2258329114849,
        "alt_km": 21528.09722529158,
        "timestamp": "2025-12-04T15:47:54.340693+00:00",
        "meta_object_name": "BEIDOU-3 M5 (C23)",
        "meta_object_id": "2018-062A",
        "meta_epoch": "2025-12-03T02:50:25.082304",
        "meta_mean_motion": 1.86228529,
        "meta_eccentricity": 0.00021161,
        "meta_inclination": 54.0891,
        "meta_ra_of_asc_node": 188.971,
        "meta_arg_of_pericenter": 350.4308,
        "meta_mean_anomaly": 9.6608,
        "meta_ephemeris_type": 0,
        "meta_classification_type": "U",
        "meta_norad_cat_id": 43581,
        "meta_element_set_no": 999,
        "meta_rev_at_epoch": 4998,
        "meta_bstar": 0,
        "meta_mean_motion_dot": 1.18e-06,
        "meta_mean_motion_ddot": 0,
        "tle_line1": "1 43581U 18062A   25337.11834586  .00000118  00000+0  00000+0 0  9992",
        "tle_line2": "2 43581  54.0891 188.9710 0002116 350.4308   9.6608  1.86228529 49989"
      },
      "geometry": {
        "type": "Point",
        "coordinates": [
          156.2258329114849,
          -36.70295629392944
        ]
      }
    },
    {
      "type": "Feature",
      "properties": {
        "norad_id": 43582,
        "name": "BEIDOU-3 M6 (C24)",
        "group": "gnss",
        "lat": 34.42412351371392,
        "lon": -141.30097995645076,
        "alt_km": 21502.568701883687,
        "timestamp": "2025-12-04T15:47:54.340705+00:00",
        "meta_object_name": "BEIDOU-3 M6 (C24)",
        "meta_object_id": "2018-062B",
        "meta_epoch": "2025-11-29T18:14:01.707936",
        "meta_mean_motion": 1.86229617,
        "meta_eccentricity": 0.00076529,
        "meta_inclination": 54.0888,
        "meta_ra_of_asc_node": 189.0746,
        "meta_arg_of_pericenter": 45.4041,
        "meta_mean_anomaly": 314.7474,
        "meta_ephemeris_type": 0,
        "meta_classification_type": "U",
        "meta_norad_cat_id": 43582,
        "meta_element_set_no": 999,
        "meta_rev_at_epoch": 4992,
        "meta_bstar": 0,
        "meta_mean_motion_dot": 1.07e-06,
        "meta_mean_motion_ddot": 0,
        "tle_line1": "1 43582U 18062B   25333.75974199  .00000107  00000+0  00000+0 0  9992",
        "tle_line2": "2 43582  54.0888 189.0746 0007652  45.4041 314.7474  1.86229617 49926"
      },
      "geometry": {
        "type": "Point",
        "coordinates": [
          -141.30097995645076,
          34.42412351371392
        ]
      }
    },
    {
      "type": "Feature",
      "properties": {
        "norad_id": 43602,
        "name": "BEIDOU-3 M12 (C26)",
        "group": "gnss",
        "lat": 53.97873938285828,
        "lon": -88.96133381283757,
        "alt_km": 21504.148159430188,
        "timestamp": "2025-12-04T15:47:54.340716+00:00",
        "meta_object_name": "BEIDOU-3 M12 (C26)",
        "meta_object_id": "2018-067A",
        "meta_epoch": "2025-12-03T23:50:04.646976",
        "meta_mean_motion": 1.86227631,
        "meta_eccentricity": 0.00091416,
        "meta_inclination": 54.1831,
        "meta_ra_of_asc_node": 187.6602,
        "meta_arg_of_pericenter": 40.5881,
        "meta_mean_anomaly": 319.5721,
        "meta_ephemeris_type": 0,
        "meta_classification_type": "U",
        "meta_norad_cat_id": 43602,
        "meta_element_set_no": 999,
        "meta_rev_at_epoch": 4948,
        "meta_bstar": 0,
        "meta_mean_motion_dot": 1.1e-06,
        "meta_mean_motion_ddot": 0,
        "tle_line1": "1 43602U 18067A   25337.99310934  .00000110  00000+0  00000+0 0  9995",
        "tle_line2": "2 43602  54.1831 187.6602 0009141  40.5881 319.5721  1.86227631 49489"
      },
      "geometry": {
        "type": "Point",
        "coordinates": [
          -88.96133381283757,
          53.97873938285828
        ]
      }
    },
    {
      "type": "Feature",
      "properties": {
        "norad_id": 43603,
        "name": "BEIDOU-3 M11 (C25)",
        "group": "gnss",
        "lat": -3.416921555828473,
        "lon": -174.8614297132371,
        "alt_km": 21517.28820767643,
        "timestamp": "2025-12-04T15:47:54.340727+00:00",
        "meta_object_name": "BEIDOU-3 M11 (C25)",
        "meta_object_id": "2018-067B",
        "meta_epoch": "2025-12-03T01:17:17.799072",
        "meta_mean_motion": 1.86227129,
        "meta_eccentricity": 0.0005566,
        "meta_inclination": 54.1806,
        "meta_ra_of_asc_node": 187.6562,
        "meta_arg_of_pericenter": 36.1126,
        "meta_mean_anomaly": 324.0194,
        "meta_ephemeris_type": 0,
        "meta_classification_type": "U",
        "meta_norad_cat_id": 43603,
        "meta_element_set_no": 999,
        "meta_rev_at_epoch": 4949,
        "meta_bstar": 0,
        "meta_mean_motion_dot": 1.19e-06,
        "meta_mean_motion_ddot": 0,
        "tle_line1": "1 43603U 18067B   25337.05367823  .00000119  00000+0  00000+0 0  9991",
        "tle_line2": "2 43603  54.1806 187.6562 0005566  36.1126 324.0194  1.86227129 49495"
      },
      "geometry": {
        "type": "Point",
        "coordinates": [
          -174.8614297132371,
          -3.416921555828473
        ]
      }
    },
    {
      "type": "Feature",
      "properties": {
        "norad_id": 43622,
        "name": "BEIDOU-3 M13 (C32)",
        "group": "gnss",
        "lat": 20.591739388736865,
        "lon": 83.50441216835746,
        "alt_km": 21524.637563542245,
        "timestamp": "2025-12-04T15:47:54.340738+00:00",
        "meta_object_name": "BEIDOU-3 M13 (C32)",
        "meta_object_id": "2018-072A",
        "meta_epoch": "2025-12-03T13:07:53.541408",
        "meta_mean_motion": 1.86230692,
        "meta_eccentricity": 0.00056735,
        "meta_inclination": 56.4512,
        "meta_ra_of_asc_node": 69.1249,
        "meta_arg_of_pericenter": 298.6305,
        "meta_mean_anomaly": 61.3164,
        "meta_ephemeris_type": 0,
        "meta_classification_type": "U",
        "meta_norad_cat_id": 43622,
        "meta_element_set_no": 999,
        "meta_rev_at_epoch": 4901,
        "meta_bstar": 0,
        "meta_mean_motion_dot": -5e-07,
        "meta_mean_motion_ddot": 0,
        "tle_line1": "1 43622U 18072A   25337.54714747 -.00000050  00000+0  00000+0 0  9998",
        "tle_line2": "2 43622  56.4512  69.1249 0005673 298.6305  61.3164  1.86230692 49019"
      },
      "geometry": {
        "type": "Point",
        "coordinates": [
          83.50441216835746,
          20.591739388736865
        ]
      }
    },
    {
      "type": "Feature",
      "properties": {
        "norad_id": 43623,
        "name": "BEIDOU-3 M14 (C33)",
        "group": "gnss",
        "lat": 48.9757299316896,
        "lon": -160.50020805444638,
        "alt_km": 21528.75301157853,
        "timestamp": "2025-12-04T15:47:54.340749+00:00",
        "meta_object_name": "BEIDOU-3 M14 (C33)",
        "meta_object_id": "2018-072B",
        "meta_epoch": "2025-12-01T19:14:30.937344",
        "meta_mean_motion": 1.86230707,
        "meta_eccentricity": 0.00030488,
        "meta_inclination": 56.4513,
        "meta_ra_of_asc_node": 69.1766,
        "meta_arg_of_pericenter": 335.7773,
        "meta_mean_anomaly": 24.2115,
        "meta_ephemeris_type": 0,
        "meta_classification_type": "U",
        "meta_norad_cat_id": 43623,
        "meta_element_set_no": 999,
        "meta_rev_at_epoch": 4897,
        "meta_bstar": 0,
        "meta_mean_motion_dot": -4.3e-07,
        "meta_mean_motion_ddot": 0,
        "tle_line1": "1 43623U 18072B   25335.80174696 -.00000043  00000+0  00000+0 0  9991",
        "tle_line2": "2 43623  56.4513  69.1766 0003048 335.7773  24.2115  1.86230707 48976"
      },
      "geometry": {
        "type": "Point",
        "coordinates": [
          -160.50020805444638,
          48.9757299316896
        ]
      }
    },
    {
      "type": "Feature",
      "properties": {
        "norad_id": 43647,
        "name": "BEIDOU-3 M16 (C35)",
        "group": "gnss",
        "lat": 7.507822256498941,
        "lon": -47.778128009175454,
        "alt_km": 21508.035267677253,
        "timestamp": "2025-12-04T15:47:54.340760+00:00",
        "meta_object_name": "BEIDOU-3 M16 (C35)",
        "meta_object_id": "2018-078A",
        "meta_epoch": "2025-12-03T00:48:25.625088",
        "meta_mean_motion": 1.86232114,
        "meta_eccentricity": 0.00069753,
        "meta_inclination": 54.271,
        "meta_ra_of_asc_node": 306.8606,
        "meta_arg_of_pericenter": 18.45,
        "meta_mean_anomaly": 341.5609,
        "meta_ephemeris_type": 0,
        "meta_classification_type": "U",
        "meta_norad_cat_id": 43647,
        "meta_element_set_no": 999,
        "meta_rev_at_epoch": 4850,
        "meta_bstar": 0,
        "meta_mean_motion_dot": -6.5e-07,
        "meta_mean_motion_ddot": 0,
        "tle_line1": "1 43647U 18078A   25337.03362992 -.00000065  00000+0  00000+0 0  9992",
        "tle_line2": "2 43647  54.2710 306.8606 0006975  18.4500 341.5609  1.86232114 48502"
      },
      "geometry": {
        "type": "Point",
        "coordinates": [
          -47.778128009175454,
          7.507822256498941
        ]
      }
    }
  ]
}